{
  "type": "FeatureCollection",
  "features": [
    {
      "type": "Feature",
      "properties": {
        "norad_id": 34070,
        "name": "COSMOS 2251 DEB",
        "group": "cosmos-2251-debris",
        "lat": 9.619541411451207,
        "lon": -63.679609297504165,
        "alt_km": 634.6757378340335,
        "timestamp": "2025-12-11T07:02:24.124545+00:00",
        "meta_object_name": "COSMOS 2251 DEB",
        "meta_object_id": "1993-036KH",
        "meta_epoch": "2025-12-10T15:41:20.087808",
        "meta_mean_motion": 14.76898862,
        "meta_eccentricity": 0.0018801,
        "meta_inclination": 74.0008,
        "meta_ra_of_asc_node": 120.3637,
        "meta_arg_of_pericenter": 236.0277,
        "meta_mean_anomaly": 134.6038,
        "meta_ephemeris_type": 0,
        "meta_classification_type": "U",
        "meta_norad_cat_id": 34070,
        "meta_element_set_no": 999,
        "meta_rev_at_epoch": 88580,
        "meta_bstar": 0.0044396,
        "meta_mean_motion_dot": 0.00031426,
        "meta_mean_motion_ddot": 0,
        "tle_line1": "1 34070U 93036KH  25344.65370472  .00031426  00000+0  44396-2 0  9990",
        "tle_line2": "2 34070  74.0008 120.3637 0018801 236.0277 134.6038 14.76898862885805"
      },
      "geometry": {
        "type": "Point",
        "coordinates": [
          -63.679609297504165,
          9.619541411451207
        ]
      }
    },
    {
      "type": "Feature",
      "properties": {
        "norad_id": 34114,
        "name": "COSMOS 2251 DEB",
        "group": "cosmos-2251-debris",
        "lat": 50.87182321865769,
        "lon": -153.9986285531482,
        "alt_km": 696.3728393634738,
        "timestamp": "2025-12-11T07:02:24.124555+00:00",
        "meta_object_name": "COSMOS 2251 DEB",
        "meta_object_id": "1993-036KK",
        "meta_epoch": "2025-12-10T07:44:12.685056",
        "meta_mean_motion": 14.56324745,
        "meta_eccentricity": 0.004736,
        "meta_inclination": 74.0584,
        "meta_ra_of_asc_node": 48.4107,
        "meta_arg_of_pericenter": 44.1143,
        "meta_mean_anomaly": 33.0003,
        "meta_ephemeris_type": 0,
        "meta_classification_type": "U",
        "meta_norad_cat_id": 34114,
        "meta_element_set_no": 999,
        "meta_rev_at_epoch": 87766,
        "meta_bstar": 0.0025029,
        "meta_mean_motion_dot": 0.0001125,
        "meta_mean_motion_ddot": 0,
        "tle_line1": "1 34114U 93036KK  25344.32236904  .00011250  00000+0  25029-2 0  9999",
        "tle_line2": "2 34114  74.0584  48.4107 0047360  44.1143  33.0003 14.56324745877668"
      },
      "geometry": {
        "type": "Point",
        "coordinates": [
          -153.9986285531482,
          50.87182321865769
        ]
      }
    },
    {
      "type": "Feature",
      "properties": {
        "norad_id": 34115,
        "name": "COSMOS 2251 DEB",
        "group": "cosmos-2251-debris",
        "lat": 57.572804321577145,
        "lon": 37.954848144672496,
        "alt_km": 612.2410424488689,
        "timestamp": "2025-12-11T07:02:24.124566+00:00",
        "meta_object_name": "COSMOS 2251 DEB",
        "meta_object_id": "1993-036KL",
        "meta_epoch": "2025-12-10T17:31:31.538496",
        "meta_mean_motion": 14.79436019,
        "meta_eccentricity": 0.00284717,
        "meta_inclination": 74.0061,
        "meta_ra_of_asc_node": 245.9037,
        "meta_arg_of_pericenter": 70.0554,
        "meta_mean_anomaly": 290.3684,
        "meta_ephemeris_type": 0,
        "meta_classification_type": "U",
        "meta_norad_cat_id": 34115,
        "meta_element_set_no": 999,
        "meta_rev_at_epoch": 89382,
        "meta_bstar": 0.0016580184,
        "meta_mean_motion_dot": 0.00012451,
        "meta_mean_motion_ddot": 0,
        "tle_line1": "1 34115U 93036KL  25344.73022614  .00012451  00000+0  16580-2 0  9992",
        "tle_line2": "2 34115  74.0061 245.9037 0028471  70.0554 290.3684 14.79436019893823"
      },
      "geometry": {
        "type": "Point",
        "coordinates": [
          37.954848144672496,
          57.572804321577145
        ]
      }
    },
    {
      "type": "Feature",
      "properties": {
        "norad_id": 34116,
        "name": "COSMOS 2251 DEB",
        "group": "cosmos-2251-debris",
        "lat": -37.71360764668017,
        "lon": 18.2896542745798,
        "alt_km": 715.682782855537,
        "timestamp": "2025-12-11T07:02:24.124577+00:00",
        "meta_object_name": "COSMOS 2251 DEB",
        "meta_object_id": "1993-036KM",
        "meta_epoch": "2025-12-10T22:04:21.355104",
        "meta_mean_motion": 14.52956878,
        "meta_eccentricity": 0.00120726,
        "meta_inclination": 74.0402,
        "meta_ra_of_asc_node": 186.2094,
        "meta_arg_of_pericenter": 262.2698,
        "meta_mean_anomaly": 163.6436,
        "meta_ephemeris_type": 0,
        "meta_classification_type": "U",
        "meta_norad_cat_id": 34116,
        "meta_element_set_no": 999,
        "meta_rev_at_epoch": 88460,
        "meta_bstar": 0.00097859869,
        "meta_mean_motion_dot": 4.012e-05,
        "meta_mean_motion_ddot": 0,
        "tle_line1": "1 34116U 93036KM  25344.91969161  .00004012  00000+0  97860-3 0  9995",
        "tle_line2": "2 34116  74.0402 186.2094 0012072 262.2698 163.6436 14.52956878884601"
      },
      "geometry": {
        "type": "Point",
        "coordinates": [
          18.2896542745798,
          -37.71360764668017
        ]
      }
    },
    {
      "type": "Feature",
      "properties": {
        "norad_id": 34117,
        "name": "COSMOS 2251 DEB",
        "group": "cosmos-2251-debris",
        "lat": 60.778461413754876,
        "lon": 135.73213853290346,
        "alt_km": 727.8556036201007,
        "timestamp": "2025-12-11T07:02:24.124587+00:00",
        "meta_object_name": "COSMOS 2251 DEB",
        "meta_object_id": "1993-036KN",
        "meta_epoch": "2025-12-10T17:10:30.756864",
        "meta_mean_motion": 14.39997962,
        "meta_eccentricity": 0.00544751,
        "meta_inclination": 74.0405,
        "meta_ra_of_asc_node": 347.5682,
        "meta_arg_of_pericenter": 64.5502,
        "meta_mean_anomaly": 296.1276,
        "meta_ephemeris_type": 0,
        "meta_classification_type": "U",
        "meta_norad_cat_id": 34117,
        "meta_element_set_no": 999,
        "meta_rev_at_epoch": 88094,
        "meta_bstar": 0.00098830993,
        "meta_mean_motion_dot": 3.143e-05,
        "meta_mean_motion_ddot": 0,
        "tle_line1": "1 34117U 93036KN  25344.71563376  .00003143  00000+0  98831-3 0  9995",
        "tle_line2": "2 34117  74.0405 347.5682 0054475  64.5502 296.1276 14.39997962880941"
      },
      "geometry": {
        "type": "Point",
        "coordinates": [
          135.73213853290346,
          60.778461413754876
        ]
      }
    },
    {
      "type": "Feature",
      "properties": {
        "norad_id": 34118,
        "name": "COSMOS 2251 DEB",
        "group": "cosmos-2251-debris",
        "lat": -73.10579575341684,
        "lon": 143.62805630844684,
        "alt_km": 634.5756291253474,
        "timestamp": "2025-12-11T07:02:24.124598+00:00",
        "meta_object_name": "COSMOS 2251 DEB",
        "meta_object_id": "1993-036KP",
        "meta_epoch": "2025-12-10T11:05:55.153824",
        "meta_mean_motion": 14.93796734,
        "meta_eccentricity": 0.00599119,
        "meta_inclination": 73.9523,
        "meta_ra_of_asc_node": 253.9124,
        "meta_arg_of_pericenter": 84.8486,
        "meta_mean_anomaly": 33.3855,
        "meta_ephemeris_type": 0,
        "meta_classification_type": "U",
        "meta_norad_cat_id": 34118,
        "meta_element_set_no": 999,
        "meta_rev_at_epoch": 89142,
        "meta_bstar": 0.0029924674,
        "meta_mean_motion_dot": 0.00032999,
        "meta_mean_motion_ddot": 0,
        "tle_line1": "1 34118U 93036KP  25344.46244391  .00032999  00000+0  29925-2 0  9999",
        "tle_line2": "2 34118  73.9523 253.9124 0059911  84.8486  33.3855 14.93796734891421"
      },
      "geometry": {
        "type": "Point",
        "coordinates": [
          143.62805630844684,
          -73.10579575341684
        ]
      }
    },
    {
      "type": "Feature",
      "properties": {
        "norad_id": 34120,
        "name": "COSMOS 2251 DEB",
        "group": "cosmos-2251-debris",
        "lat": 73.98071588668313,
        "lon": -51.99268421891601,
        "alt_km": 793.1374758892189,
        "timestamp": "2025-12-11T07:02:24.124608+00:00",
        "meta_object_name": "COSMOS 2251 DEB",
        "meta_object_id": "1993-036KR",
        "meta_epoch": "2025-12-10T22:06:58.450176",
        "meta_mean_motion": 13.98680296,
        "meta_eccentricity": 0.01818798,
        "meta_inclination": 73.9914,
        "meta_ra_of_asc_node": 219.37,
        "meta_arg_of_pericenter": 47.4606,
        "meta_mean_anomaly": 329.4256,
        "meta_ephemeris_type": 0,
        "meta_classification_type": "U",
        "meta_norad_cat_id": 34120,
        "meta_element_set_no": 999,
        "meta_rev_at_epoch": 85955,
        "meta_bstar": 0.00048940944,
        "meta_mean_motion_dot": 7.87e-06,
        "meta_mean_motion_ddot": 0,
        "tle_line1": "1 34120U 93036KR  25344.92150984  .00000787  00000+0  48941-3 0  9997",
        "tle_line2": "2 34120  73.9914 219.3700 0181879  47.4606 329.4256 13.98680296859553"
      },
      "geometry": {
        "type": "Point",
        "coordinates": [
          -51.99268421891601,
          73.98071588668313
        ]
      }
    }
  ]
}